start=new Date('2021-12-09T00:00:00.000Z').valueOf();
sats=[{"SEMIMAJOR_AXIS":"6925.352","OBJECT_ID":"2020-073AW","OBJECT_TYPE":"PAYLOAD","MEAN_MOTION_DOT":"-0.00000337","RCS_SIZE":"LARGE","TIME_SYSTEM":"UTC","NORAD_CAT_ID":"46714","SITE":"AFETR","REV_AT_EPOCH":"6322","CENTER_NAME":"EARTH","TLE_LINE2":"2 46714  53.0569   8.2763 0001537  61.5989 298.5155 15.06399035 63221","PERIAPSIS":"546.152","EPOCH":"2021-12-08T19:27:24.886944","MEAN_MOTION_DDOT":"0.0000000000000","BSTAR":"-0.00000372340000","COUNTRY_CODE":"US","RA_OF_ASC_NODE":"8.2763","GP_ID":"191363965","APOAPSIS":"548.281","OBJECT_NAME":"STARLINK-1816","MEAN_ANOMALY":"298.5155","ARG_OF_PERICENTER":"61.5989","MEAN_MOTION":"15.06399035","INCLINATION":"53.0569","FILE":"3235972","REF_FRAME":"TEME","LAUNCH_DATE":"2020-10-18","ELEMENT_SET_NO":"999","ECCENTRICITY":"0.00015370","PERIOD":"95.592","DECAY_DATE":null,"CLASSIFICATION_TYPE":"U","MEAN_ELEMENT_THEORY":"SGP4","EPHEMERIS_TYPE":"0","TLE_LINE1":"1 46714U 20073AW  21342.81070471 -.00000337  00000-0 -37234-5 0  9993"},{"REV_AT_EPOCH":"6322","SITE":"AFETR","NORAD_CAT_ID":"46715","TIME_SYSTEM":"UTC","RCS_SIZE":"LARGE","MEAN_MOTION_DOT":"-0.00000372","OBJECT_TYPE":"PAYLOAD","OBJECT_ID":"2020-073AX","SEMIMAJOR_AXIS":"6925.359","RA_OF_ASC_NODE":"8.2958","COUNTRY_CODE":"US","BSTAR":"-0.00000605710000","MEAN_MOTION_DDOT":"0.0000000000000","EPOCH":"2021-12-08T19:22:06.576384","PERIAPSIS":"546.103","TLE_LINE2":"2 46715  53.0559   8.2958 0001618  57.9695 302.1451 15.06396726 63225","CENTER_NAME":"EARTH","ELEMENT_SET_NO":"999","LAUNCH_DATE":"2020-10-18","FILE":"3235972","INCLINATION":"53.0559","REF_FRAME":"TEME","MEAN_MOTION":"15.06396726","MEAN_ANOMALY":"302.1451","ARG_OF_PERICENTER":"57.9695","OBJECT_NAME":"STARLINK-1817","APOAPSIS":"548.344","GP_ID":"191364215","EPHEMERIS_TYPE":"0","TLE_LINE1":"1 46715U 20073AX  21342.80702056 -.00000372  00000-0 -60571-5 0  9993","MEAN_ELEMENT_THEORY":"SGP4","CLASSIFICATION_TYPE":"U","DECAY_DATE":null,"PERIOD":"95.592","ECCENTRICITY":"0.00016180"},{"GP_ID":"191364967","APOAPSIS":"548.425","OBJECT_NAME":"STARLINK-1818","ARG_OF_PERICENTER":"62.4157","MEAN_ANOMALY":"297.7004","MEAN_MOTION":"15.06387615","FILE":"3235972","INCLINATION":"53.0562","REF_FRAME":"TEME","ELEMENT_SET_NO":"999","LAUNCH_DATE":"2020-10-18","ECCENTRICITY":"0.00016940","DECAY_DATE":null,"PERIOD":"95.593","CLASSIFICATION_TYPE":"U","MEAN_ELEMENT_THEORY":"SGP4","TLE_LINE1":"1 46716U 20073AY  21342.82222882 -.00000124  00000-0  10582-4 0  9990","EPHEMERIS_TYPE":"0","SEMIMAJOR_AXIS":"6925.387","OBJECT_ID":"2020-073AY","MEAN_MOTION_DOT":"-0.00000124","OBJECT_TYPE":"PAYLOAD","RCS_SIZE":"LARGE","NORAD_CAT_ID":"46716","TIME_SYSTEM":"UTC","SITE":"AFETR","REV_AT_EPOCH":"6301","CENTER_NAME":"EARTH","TLE_LINE2":"2 46716  53.0562  23.2340 0001694  62.4157 297.7004 15.06387615 63017","EPOCH":"2021-12-08T19:44:00.570048","PERIAPSIS":"546.078","BSTAR":"0.00001058200000","MEAN_MOTION_DDOT":"0.0000000000000","RA_OF_ASC_NODE":"23.2340","COUNTRY_CODE":"US"},{"ECCENTRICITY":"0.00016020","PERIOD":"95.592","DECAY_DATE":null,"CLASSIFICATION_TYPE":"U","MEAN_ELEMENT_THEORY":"SGP4","TLE_LINE1":"1 46717U 20073AZ  21342.49370653  .00001492  00000-0  11906-3 0  9992","EPHEMERIS_TYPE":"0","GP_ID":"191334977","APOAPSIS":"548.322","OBJECT_NAME":"STARLINK-1820","MEAN_ANOMALY":"295.7218","ARG_OF_PERICENTER":"64.3936","MEAN_MOTION":"15.06400420","FILE":"3235746","INCLINATION":"53.0563","REF_FRAME":"TEME","LAUNCH_DATE":"2020-10-18","ELEMENT_SET_NO":"999","CENTER_NAME":"EARTH","TLE_LINE2":"2 46717  53.0563   9.6905 0001602  64.3936 295.7218 15.06400420 63171","PERIAPSIS":"546.103","EPOCH":"2021-12-08T11:50:56.244192","MEAN_MOTION_DDOT":"0.0000000000000","BSTAR":"0.00011906000000","COUNTRY_CODE":"US","RA_OF_ASC_NODE":"9.6905","SEMIMAJOR_AXIS":"6925.347","OBJECT_ID":"2020-073AZ","MEAN_MOTION_DOT":"0.00001492","OBJECT_TYPE":"PAYLOAD","RCS_SIZE":"LARGE","TIME_SYSTEM":"UTC","NORAD_CAT_ID":"46717","SITE":"AFETR","REV_AT_EPOCH":"6317"},{"ECCENTRICITY":"0.00012970","CLASSIFICATION_TYPE":"U","DECAY_DATE":null,"PERIOD":"95.592","TLE_LINE1":"1 46718U 20073BA  21342.60105743  .00001091  00000-0  92104-4 0  9997","EPHEMERIS_TYPE":"0","MEAN_ELEMENT_THEORY":"SGP4","GP_ID":"191363465","OBJECT_NAME":"STARLINK-1821","APOAPSIS":"548.114","MEAN_MOTION":"15.06399269","ARG_OF_PERICENTER":"69.7768","MEAN_ANOMALY":"290.3361","LAUNCH_DATE":"2020-10-18","ELEMENT_SET_NO":"999","FILE":"3235972","REF_FRAME":"TEME","INCLINATION":"53.0546","CENTER_NAME":"EARTH","PERIAPSIS":"546.318","EPOCH":"2021-12-08T14:25:31.361952","TLE_LINE2":"2 46718  53.0546  24.2274 0001297  69.7768 290.3361 15.06399269 62983","COUNTRY_CODE":"US","RA_OF_ASC_NODE":"24.2274","MEAN_MOTION_DDOT":"0.0000000000000","BSTAR":"0.00009210400000","OBJECT_ID":"2020-073BA","SEMIMAJOR_AXIS":"6925.351","OBJECT_TYPE":"PAYLOAD","MEAN_MOTION_DOT":"0.00001091","NORAD_CAT_ID":"46718","TIME_SYSTEM":"UTC","RCS_SIZE":"LARGE","REV_AT_EPOCH":"6298","SITE":"AFETR"},{"EPHEMERIS_TYPE":"0","TLE_LINE1":"1 46719U 20073BB  21342.71671729  .00000130  00000-0  27644-4 0  9992","MEAN_ELEMENT_THEORY":"SGP4","ECCENTRICITY":"0.00012280","CLASSIFICATION_TYPE":"U","DECAY_DATE":null,"PERIOD":"95.592","MEAN_MOTION":"15.06396719","ARG_OF_PERICENTER":"45.6599","MEAN_ANOMALY":"314.4490","LAUNCH_DATE":"2020-10-18","ELEMENT_SET_NO":"999","REF_FRAME":"TEME","FILE":"3235972","INCLINATION":"53.0569","GP_ID":"191363715","OBJECT_NAME":"STARLINK-1822","APOAPSIS":"548.074","PERIAPSIS":"546.373","EPOCH":"2021-12-08T17:12:04.373856","TLE_LINE2":"2 46719  53.0569 348.6960 0001228  45.6599 314.4490 15.06396719 63498","COUNTRY_CODE":"US","RA_OF_ASC_NODE":"348.6960","MEAN_MOTION_DDOT":"0.0000000000000","BSTAR":"0.00002764400000","CENTER_NAME":"EARTH","TIME_SYSTEM":"UTC","NORAD_CAT_ID":"46719","RCS_SIZE":"LARGE","REV_AT_EPOCH":"6349","SITE":"AFETR","OBJECT_ID":"2020-073BB","SEMIMAJOR_AXIS":"6925.359","MEAN_MOTION_DOT":"0.00000130","OBJECT_TYPE":"PAYLOAD"},{"CENTER_NAME":"EARTH","EPOCH":"2021-12-08T06:29:46.688064","PERIAPSIS":"429.301","TLE_LINE2":"2 46720  53.0556 328.7271 0003782  99.5255 260.6178 15.44831161 63733","RA_OF_ASC_NODE":"328.7271","COUNTRY_CODE":"US","BSTAR":"0.00066329000000","MEAN_MOTION_DDOT":"0.0000000000000","OBJECT_ID":"2020-073BC","SEMIMAJOR_AXIS":"6810.011","MEAN_MOTION_DOT":"0.00031299","OBJECT_TYPE":"PAYLOAD","TIME_SYSTEM":"UTC","NORAD_CAT_ID":"46720","RCS_SIZE":"LARGE","REV_AT_EPOCH":"6373","SITE":"AFETR","ECCENTRICITY":"0.00037820","CLASSIFICATION_TYPE":"U","PERIOD":"93.214","DECAY_DATE":null,"TLE_LINE1":"1 46720U 20073BC  21342.27067926  .00031299  00000-0  66329-3 0  9995","EPHEMERIS_TYPE":"0","MEAN_ELEMENT_THEORY":"SGP4","GP_ID":"191336229","OBJECT_NAME":"STARLINK-1823","APOAPSIS":"434.452","MEAN_MOTION":"15.44831161","ARG_OF_PERICENTER":"99.5255","MEAN_ANOMALY":"260.6178","ELEMENT_SET_NO":"999","LAUNCH_DATE":"2020-10-18","REF_FRAME":"TEME","FILE":"3235746","INCLINATION":"53.0556"},{"OBJECT_ID":"2020-073BE","SEMIMAJOR_AXIS":"6925.355","OBJECT_TYPE":"PAYLOAD","MEAN_MOTION_DOT":"0.00001292","NORAD_CAT_ID":"46722","TIME_SYSTEM":"UTC","RCS_SIZE":"LARGE","REV_AT_EPOCH":"6301","SITE":"AFETR","CENTER_NAME":"EARTH","EPOCH":"2021-12-08T19:49:18.390720","PERIAPSIS":"546.181","TLE_LINE2":"2 46722  53.0564  23.2004 0001500  68.7404 291.3745 15.06397845 63011","RA_OF_ASC_NODE":"23.2004","COUNTRY_CODE":"US","BSTAR":"0.00010565000000","MEAN_MOTION_DDOT":"0.0000000000000","GP_ID":"191365218","OBJECT_NAME":"STARLINK-1825","APOAPSIS":"548.259","MEAN_MOTION":"15.06397845","ARG_OF_PERICENTER":"68.7404","MEAN_ANOMALY":"291.3745","ELEMENT_SET_NO":"999","LAUNCH_DATE":"2020-10-18","FILE":"3235972","INCLINATION":"53.0564","REF_FRAME":"TEME","ECCENTRICITY":"0.00015000","CLASSIFICATION_TYPE":"U","DECAY_DATE":null,"PERIOD":"95.592","TLE_LINE1":"1 46722U 20073BE  21342.82590730  .00001292  00000-0  10565-3 0  9993","EPHEMERIS_TYPE":"0","MEAN_ELEMENT_THEORY":"SGP4"},{"GP_ID":"191363966","APOAPSIS":"548.338","OBJECT_NAME":"STARLINK-1826","ARG_OF_PERICENTER":"55.5937","MEAN_ANOMALY":"304.5202","MEAN_MOTION":"15.06391558","FILE":"3235972","REF_FRAME":"TEME","INCLINATION":"53.0569","ELEMENT_SET_NO":"999","LAUNCH_DATE":"2020-10-18","ECCENTRICITY":"0.00015870","DECAY_DATE":null,"PERIOD":"95.593","CLASSIFICATION_TYPE":"U","MEAN_ELEMENT_THEORY":"SGP4","TLE_LINE1":"1 46723U 20073BF  21342.71902157  .00000373  00000-0  43954-4 0  9990","EPHEMERIS_TYPE":"0","SEMIMAJOR_AXIS":"6925.374","OBJECT_ID":"2020-073BF","OBJECT_TYPE":"PAYLOAD","MEAN_MOTION_DOT":"0.00000373","RCS_SIZE":"LARGE","NORAD_CAT_ID":"46723","TIME_SYSTEM":"UTC","SITE":"AFETR","REV_AT_EPOCH":"6356","CENTER_NAME":"EARTH","TLE_LINE2":"2 46723  53.0569 343.6930 0001587  55.5937 304.5202 15.06391558 63564","EPOCH":"2021-12-08T17:15:23.463648","PERIAPSIS":"546.140","BSTAR":"0.00004395400000","MEAN_MOTION_DDOT":"0.0000000000000","RA_OF_ASC_NODE":"343.6930","COUNTRY_CODE":"US"},{"RCS_SIZE":"LARGE","NORAD_CAT_ID":"46725","TIME_SYSTEM":"UTC","SITE":"AFETR","REV_AT_EPOCH":"6302","SEMIMAJOR_AXIS":"6925.362","OBJECT_ID":"2020-073BH","MEAN_MOTION_DOT":"-0.00000285","OBJECT_TYPE":"PAYLOAD","TLE_LINE2":"2 46725  53.0559  23.0653 0001423  67.4599 292.6540 15.06395637 63026","EPOCH":"2021-12-08T20:31:46.309440","PERIAPSIS":"546.241","BSTAR":"-0.00000025599000","MEAN_MOTION_DDOT":"0.0000000000000","RA_OF_ASC_NODE":"23.0653","COUNTRY_CODE":"US","CENTER_NAME":"EARTH","MEAN_ANOMALY":"292.6540","ARG_OF_PERICENTER":"67.4599","MEAN_MOTION":"15.06395637","INCLINATION":"53.0559","FILE":"3235972","REF_FRAME":"TEME","ELEMENT_SET_NO":"999","LAUNCH_DATE":"2020-10-18","GP_ID":"191364216","APOAPSIS":"548.212","OBJECT_NAME":"STARLINK-1828","MEAN_ELEMENT_THEORY":"SGP4","TLE_LINE1":"1 46725U 20073BH  21342.85539710 -.00000285  00000-0 -25599-6 0  9999","EPHEMERIS_TYPE":"0","ECCENTRICITY":"0.00014230","PERIOD":"95.592","DECAY_DATE":null,"CLASSIFICATION_TYPE":"U"}];
